EUTELSAT QUANTUM        
1 49056U 21069B   25239.87128079  .00000000  00000+0  00000+0 0  9993
2 49056   0.0146 101.5745 0001990  71.8954 164.2260  1.00273083 14980
EUTELSAT KONNECT VHTS   
1 53765U 22110A   25239.67187225  .00000016  00000+0  00000+0 0  9996
2 53765   0.0582 103.7896 0002737  38.2798  78.6598  1.00270591  3880
EUTELSAT HOTBIRD 13F    
1 54048U 22134A   25239.74518876  .00000086  00000+0  00000+0 0  9992
2 54048   0.0539 294.5154 0002080  70.0795 252.8887  1.00271788 10430
EUTELSAT HOTBIRD 13G    
1 54225U 22146A   25239.74518876  .00000087  00000+0  00000+0 0  9993
2 54225   0.0502 232.8874 0001962 302.1123  82.4716  1.00271852  4526
EUTELSAT 10B            
1 54259U 22157A   25239.67325891  .00000068  00000+0  00000+0 0  9996
2 54259   0.0576 101.8400 0001318   5.2730 121.3862  1.00272729 10070
EUTELSAT 36D            
1 59346U 24059A   25239.37822483  .00000154  00000+0  00000+0 0  9993
2 59346   0.0132 121.9183 0000231  14.9193  11.0306  1.00272063  5202
